STARLINK-2404           
1 48093U 21027B   26068.45445489  .00003172  00000+0  11922-3 0  9991
2 48093  53.1593 156.0452 0001212 104.0491 256.0644 15.30185413272627
HAWK-11B                
1 62379U 24247C   26068.44730104  .00009093  00000+0  32842-3 0  9993
2 62379  45.0161 115.7610 0004690 333.0326  27.0314 15.28847070 67738
